IRIDIUM 126             
1 42809U 17039G   24136.92758019  .00000266  00000+0  88051-4 0  9999
2 42809  86.3938 312.1964 0002221  84.9066 275.2383 14.34216277360699
IRIDIUM 124             
1 42810U 17039H   24136.82911309  .00000599  00000+0  17203-3 0  9992
2 42810  86.4503 248.9422 0001977  99.2319 260.9106 14.43272177365153
IRIDIUM 128             
1 42811U 17039J   24136.63923691  .00000113  00000+0  33213-4 0  9991
2 42811  86.3974 343.8428 0002076  86.5516 273.5917 14.34217759360683
IRIDIUM 121             
1 42812U 17039K   24136.94660555  .00000087  00000+0  24150-4 0  9993
2 42812  86.3937 312.2108 0002104  90.5946 269.5491 14.34215736360575
IRIDIUM 133             
1 42955U 17061A   24136.95002515  .00000373  00000+0  12615-3 0  9993
2 42955  86.3976 343.8113 0002141  85.7079 274.4361 14.34213005345522
IRIDIUM 100             
1 42956U 17061B   24136.94369423  .00000930  00000+0  32507-3 0  9998
2 42956  86.3973 343.7507 0002171  85.5650 274.5794 14.34215278345527
IRIDIUM 122             
1 42957U 17061C   24136.63288434  .00000467  00000+0  15953-3 0  9998
2 42957  86.3968 343.8794 0002247  87.2760 272.8692 14.34219119345487
IRIDIUM 129             
1 42958U 17061D   24136.65826861  .00000180  00000+0  57208-4 0  9995
2 42958  86.3975 343.9273 0002151  81.7999 278.3441 14.34213504345504
